SL-16 R/B               
1 19120U 88039B   16277.17360423  .00000162  00000-0  10001-3 0  9994
2 19120  71.0142 147.9740 0023479 226.4129 133.5048 14.19154313469929
COSMOS 1953             
1 19210U 88050A   16276.47979989  .00000589  00000-0  39453-4 0  9998
2 19210  82.5142 283.1802 0015209  63.3160 296.9622 15.04951033539078
SL-8 R/B                
1 19257U 88053B   16276.48957841  .00000101  00000-0  42756-4 0  9996
2 19257  74.0499 330.2821 0021719 284.4193 175.7130 14.37331764481746
COSMOS 1975             
1 19573U 88093A   16277.00109992  .00000592  00000-0  40772-4 0  9996
2 19573  82.5201 234.2413 0016411  94.0780 266.2322 15.03864482521153
SL-14 R/B               
1 19574U 88093B   16275.90191522  .00000148  00000-0  15156-4 0  9999
2 19574  82.5347  26.5346 0020258 246.4881 253.2457 14.83177598490074
SL-16 R/B               
1 19650U 88102B   16277.17833434  .00000216  00000-0  13417-3 0  9994
2 19650  71.0001 195.5084 0015683 220.6524 139.3429 14.15745113439614
INTERCOSMOS 24          
1 20261U 89080A   16277.32853862  .00000207  00000-0  59848-4 0  9993
2 20261  82.5983 176.3523 1204493 329.1200  24.4075 12.55824510233727
SL-14 R/B               
1 20262U 89080C   16276.85769425  .00000103  00000-0  21718-4 0  9992
2 20262  82.5950 220.8785 1238048 123.2075 249.3934 12.48824702229602
DELTA 1 R/B             
1 20323U 89089B   16276.88353952  .00000044  00000-0  20362-4 0  9994
2 20323  97.0742 257.8727 0072106 168.7672 191.5155 14.48148377417480
DELTA 2 R/B(1)          
1 20453U 90008B   16276.48597054  .00002286  00000-0  13409-3 0  9993
2 20453  35.6260 303.3696 0293139 186.3861 173.3069 14.82145647409934
COSMOS 2058             
1 20465U 90010A   16277.55096037  .00000543  00000-0  44357-4 0  9994
2 20465  82.4887 134.5805 0017205  79.8282 280.4880 14.97309423446931
SL-14 R/B               
1 20466U 90010B   16277.47580275  .00000124  00000-0  12809-4 0  9990
2 20466  82.5014 252.7810 0022133 100.9334 259.4372 14.81242044439497
SL-14 R/B               
1 20511U 90018B   16277.33119144  .00000142  00000-0  15806-4 0  9997
2 20511  82.5257 193.2975 0016214 232.5168 272.6191 14.79903536434070
HST                     
1 20580U 90037B   16276.80253473  .00000953  00000-0  48335-4 0  9992
2 20580  28.4698 267.9796 0002515 286.0736  87.8743 15.08521796251374
SL-16 R/B               
1 20625U 90046B   16277.52389544  .00000049  00000-0  49986-4 0  9990
2 20625  71.0008 327.8176 0012701 144.7920 215.4044 14.14609140361544
COSMOS 2084             
1 20663U 90055A   16276.50354481  .00000331  00000-0  46063-4 0  9998
2 20663  62.7942   8.0309 0132492  64.6667 296.8080 14.91351349421375
SL-6 R/B(2)             
1 20666U 90055D   16277.23055526  .00000298  00000-0  42635-4 0  9993
2 20666  62.7830 285.1068 0136288  83.9805 277.6800 14.91714849422847
SL-8 R/B                
1 20775U 90078B   16277.43996049  .00004394  00000-0  21836-3 0  9995
2 20775  82.9273 258.4165 0596645  52.4720 312.9162 14.29077483312072
SL-8 R/B                
1 21088U 91006B   16276.84033159  .00000075  00000-0  60768-4 0  9993
2 21088  82.9446 211.5283 0021821 324.2349  87.9052 13.77039731290189
OKEAN-3                 
1 21397U 91039A   16276.79601412  .00000541  00000-0  50257-4 0  9999
2 21397  82.5247  22.8689 0018481  22.7447 337.4587 14.92314160371396
COSMOS 2151             
1 21422U 91042A   16277.09653153  .00000340  00000-0  31179-4 0  9994
2 21422  82.4993 131.0867 0015790  74.4820 285.8141 14.91701966370172
SL-14 R/B               
1 21423U 91042B   16276.75228523  .00000115  00000-0  12280-4 0  9998
2 21423  82.4964 201.9748 0018158  18.5943 341.5929 14.79655710364518
ERS-1                   
1 21574U 91050A   16276.87475198  .00000105  00000-0  49242-4 0  9996
2 21574  98.4249 222.6011 0033330   5.8260 354.3308 14.37523758320628
ARIANE 40 R/B           
1 21610U 91050F   16276.81862949  .00000060  00000-0  33054-4 0  9999
2 21610  98.6443 325.2808 0003139  13.8559 116.2998 14.40761979323058
INTERCOSMOS 25          
1 21819U 91086A   16277.18811995  .00000290  00000-0  58004-4 0  9992
2 21819  82.5645 217.5514 1522840 273.7250  69.1616 12.04391660 81332
SL-14 R/B               
1 21820U 91086B   16277.45229711  .00000216  00000-0  34991-4 0  9990
2 21820  82.5562 269.9018 1578347  91.2360 286.9239 11.93204531 76162
SL-8 R/B                
1 21876U 92008B   16276.19193188  .00000104  00000-0  91215-4 0  9992
2 21876  82.9252 308.9537 0035551  36.5294  27.0968 13.75589063235916
SL-8 R/B                
1 21938U 92020B   16276.37581231  .00000046  00000-0  31629-4 0  9993
2 21938  82.9333 191.8618 0028682 188.8356 310.5559 13.75241658227856
SL-16 R/B               
1 22220U 92076B   16276.90181837 -.00000234  00000-0 -93669-4 0  9999
2 22220  70.9990 240.8138 0014909 299.7956  90.6133 14.16402258234341
SL-16 R/B               
1 22285U 92093B   16277.48091679 -.00000046  00000-0  62804-6 0  9996
2 22285  71.0241  30.7812 0003904 192.5894 167.5132 14.15003650226225
COSMOS 2228             
1 22286U 92094A   16277.43700236  .00000400  00000-0  41337-4 0  9998
2 22286  82.5193 256.1353 0019043 252.6404 107.2730 14.87529000284320
SL-16 R/B               
1 22566U 93016B   16277.37069271  .00000085  00000-0  68507-4 0  9991
2 22566  71.0070 245.9910 0009909 177.3483 182.7694 14.14939571214949
COSMOS 2242             
1 22626U 93024A   16276.51420189  .00000376  00000-0  38630-4 0  9998
2 22626  82.5192 284.7059 0017546 254.8789 105.0488 14.87530144267848
SL-16 R/B               
1 22803U 93059B   16277.50778431 -.00000198  00000-0 -74846-4 0  9992
2 22803  70.9897  70.3099 0015417  51.4520 308.7982 14.16754668191927
ARIANE 40 R/B           
1 22830U 93061H   16276.63830657 -.00000022  00000-0  91642-5 0  9996
2 22830  98.8897 280.0794 0010256 324.8462 143.5847 14.31412709201400
COSMOS 2278             
1 23087U 94023A   16276.15683526 -.00000272  00000-0 -11905-3 0  9998
2 23087  71.0535 178.2647 0011373 253.6637 106.3235 14.13724495158021
SL-16 R/B               
1 23088U 94023B   16276.53567011 -.00000159  00000-0 -57739-4 0  9991
2 23088  70.9986 102.8263 0002010 178.6577 181.4551 14.14650222159106
SL-16 R/B               
1 23343U 94074B   16277.18882597  .00000019  00000-0  10340-4 0  9992
2 23343  98.1857 305.2511 0007156 166.3728 235.4813 14.76673687178900
SL-16 R/B               
1 23405U 94077B   16275.79034443 -.00000117  00000-0 -35430-4 0  9996
2 23405  70.9851  38.6704 0003853 315.5285  44.5528 14.15189016128704
ERS-2                   
1 23560U 95021A   16276.86941473  .00003094  00000-0  14924-3 0  9996
2 23560  98.5235 229.2991 0005327  95.0485 265.1355 15.19623414136296
ARIANE 40+ R/B          
1 23561U 95021B   16277.48924998  .00000069  00000-0  38371-4 0  9991
2 23561  98.7797 266.9598 0006050 304.7931 166.5159 14.37767556124369
SL-16 R/B               
1 23705U 95058B   16277.28879000  .00000140  00000-0  96413-4 0  9993
2 23705  71.0221 208.0151 0013731 321.6767  38.3379 14.15084737 80849
SL-16 R/B               
1 24298U 96051B   16277.36417981  .00000084  00000-0  71900-4 0  9991
2 24298  70.8390 243.3658 0018625 211.4126 148.5883 14.12436036 35559
ORBVIEW 2 (SEASTAR)     
1 24883U 97037A   16276.88361423  .00000060  00000-0  37700-4 0  9995
2 24883  98.5292  23.1830 0003197 132.2228 227.9228 14.33343318 15044
SL-16 R/B               
1 25400U 98043G   16276.87721664  .00000005  00000-0  20144-4 0  9998
2 25400  98.4509 227.8222 0009369 335.3899  24.6833 14.25391959948410
SL-16 R/B               
1 25407U 98045B   16277.17998163  .00000215  00000-0  13381-3 0  9998
2 25407  71.0112 221.5169 0009784 245.2126 114.7979 14.15752172939800
ISS (ZARYA)             
1 25544U 98067A   16277.41979267  .00005400  00000-0  89064-4 0  9998
2 25544  51.6438 238.1512 0006676  34.3263 109.3444 15.54026112 21822
SL-8 R/B                
1 25723U 99022C   16276.98074475  .00009001  00000-0  16347-3 0  9991
2 25723  48.4167  95.0222 0012243 237.7759 256.4451 15.50165567966541
CZ-4B R/B               
1 25732U 99025C   16277.56061387 -.00000019  00000-0  12837-4 0  9999
2 25732  98.9809 270.3551 0038413 101.4502   5.1943 14.17617186900271
OKEAN-O                 
1 25860U 99039A   16276.88304629  .00000169  00000-0  31951-4 0  9992
2 25860  98.1566 252.7034 0000899 101.4793 258.6517 14.76404593925869
SL-16 R/B               
1 25861U 99039B   16276.83719678  .00000080  00000-0  18290-4 0  9995
2 25861  98.0674 240.9994 0015479 185.5720 203.5682 14.78352023927750
TERRA                   
1 25994U 99068A   16277.38093922  .00000267  00000-0  69280-4 0  9994
2 25994  98.2039 350.1144 0001444  68.7387 291.3956 14.57113801893277
SL-14 R/B               
1 26874U 01032B   16277.35775246  .00041225  00000-0  15804-3 0  9990
2 26874  82.4588 162.9189 0007367 128.8393 231.3536 15.87190146852760
ENVISAT                 
1 27386U 02009A   16277.40209974  .00000020  00000-0  20561-4 0  9995
2 27386  98.2721 326.8787 0001099  80.7960 279.3353 14.37877119764172
IDEFIX & ARIANE 42P R/B 
1 27422U 02021B   16276.67379441 -.00000015  00000-0  98952-5 0  9990
2 27422  98.2296 285.2536 0011085 281.4885  78.5053 14.29249746749890
AQUA                    
1 27424U 02022A   16276.86303425  .00000195  00000-0  53282-4 0  9997
2 27424  98.2070 215.7692 0001155 121.9366 303.7216 14.57108577766803
CZ-4B R/B               
1 27432U 02024C   16276.88963919 -.00000005  00000-0  20552-4 0  9995
2 27432  98.9504 243.5018 0051248  41.5363  11.4284 14.14025995742430
MIDORI II (ADEOS-II)    
1 27597U 02056A   16276.97970774  .00000070  00000-0  45434-4 0  9996
2 27597  98.3343 251.9845 0001737  49.7080 310.4253 14.27237360718731
H-2A R/B                
1 27601U 02056E   16276.31779981  .00000070  00000-0  40973-4 0  9990
2 27601  98.4098 346.5877 0071692 340.6656  65.7934 14.31736805720912
